{
    "CCSDS_OMM_VERS": "3.0",
    "COMMENT": "GENERATED VIA SPACE-TRACK.ORG API",
    "CREATION_DATE": "2025-05-22T17:14:14",
    "ORIGINATOR": "18 SPCS",
    "OBJECT_NAME": "GALILEO 8 (264)",
    "OBJECT_ID": "2015-017B",
    "CENTER_NAME": "EARTH",
    "REF_FRAME": "TEME",
    "TIME_SYSTEM": "UTC",
    "MEAN_ELEMENT_THEORY": "SGP4",
    "EPOCH": "2025-05-22T05:11:42.156096",
    "MEAN_MOTION": "1.70475526",
    "ECCENTRICITY": "0.00017740",
    "INCLINATION": "56.8987",
    "RA_OF_ASC_NODE": "352.2636",
    "ARG_OF_PERICENTER": "268.8624",
    "MEAN_ANOMALY": "91.1599",
    "EPHEMERIS_TYPE": "0",
    "CLASSIFICATION_TYPE": "U",
    "NORAD_CAT_ID": "40545",
    "ELEMENT_SET_NO": "999",
    "REV_AT_EPOCH": "2558",
    "BSTAR": "0.00000000000000",
    "MEAN_MOTION_DOT": "-0.00000068",
    "MEAN_MOTION_DDOT": "0.0000000000000",
    "SEMIMAJOR_AXIS": "29600.143",
    "PERIOD": "844.696",
    "APOAPSIS": "23227.259",
    "PERIAPSIS": "23216.757",
    "OBJECT_TYPE": "PAYLOAD",
    "RCS_SIZE": "LARGE",
    "COUNTRY_CODE": "ESA",
    "LAUNCH_DATE": "2015-03-27",
    "SITE": "FRGUI",
    "DECAY_DATE": null,
    "FILE": "4736220",
    "GP_ID": "288142619",
    "TLE_LINE0": "0 GALILEO 8 (264)",
    "TLE_LINE1": "1 40545U 15017B   25142.21646014 -.00000068  00000-0  00000-0 0  9995",
    "TLE_LINE2": "2 40545  56.8987 352.2636 0001774 268.8624  91.1599  1.70475526 25586"
}